{"type": "FeatureCollection", "features": [ {"type": "Feature", "properties": {"norad_id": 34058, "name": "COSMOS 2251 DEB", "group": "cosmos-2251-debris", "lat": 5.599011308950811, "lon": 1.4109858529745585, "alt_km": 771.7800017309883, "timestamp": "2025-12-09T16:56:36.967878+00:00", "meta": {"OBJECT_NAME": "COSMOS 2251 DEB", "OBJECT_ID": "1993-036JV", "EPOCH": "2025-12-09T12:41:11.885856", "MEAN_MOTION": 13.56069347, "ECCENTRICITY": 0.0378087, "INCLINATION": 73.9315, "RA_OF_ASC_NODE": 183.3175, "ARG_OF_PERICENTER": 179.1666, "MEAN_ANOMALY": 209.6556, "EPHEMERIS_TYPE": 0, "CLASSIFICATION_TYPE": "U", "NORAD_CAT_ID": 34058, "ELEMENT_SET_NO": 999, "REV_AT_EPOCH": 83099, "BSTAR": 0.00099291, "MEAN_MOTION_DOT": 1.081e-05, "MEAN_MOTION_DDOT": 0}, "tle": {"line1": "1 34058U 93036JV  25343.52860979  .00001081  00000+0  99291-3 0  9996", "line2": "2 34058  73.9315 183.3175 0378087 179.1666 209.6556 13.56069347830993"}}, "geometry": {"type": "Point", "coordinates": [1.4109858529745585, 5.599011308950811]}}, {"type": "Feature", "properties": {"norad_id": 34059, "name": "COSMOS 2251 DEB", "group": "cosmos-2251-debris", "lat": 54.83273049388661, "lon": -144.03185860400802, "alt_km": 721.9193112227385, "timestamp": "2025-12-09T16:56:36.967889+00:00", "meta": {"OBJECT_NAME": "COSMOS 2251 DEB", "OBJECT_ID": "1993-036JW", "EPOCH": "2025-12-09T07:35:07.670400", "MEAN_MOTION": 14.52916514, "ECCENTRICITY": 0.0018706, "INCLINATION": 74.0378, "RA_OF_ASC_NODE": 192.7349, "ARG_OF_PERICENTER": 270.3264, "MEAN_ANOMALY": 269.2043, "EPHEMERIS_TYPE": 0, "CLASSIFICATION_TYPE": "U", "NORAD_CAT_ID": 34059, "ELEMENT_SET_NO": 999, "REV_AT_EPOCH": 88409, "BSTAR": 0.0010949, "MEAN_MOTION_DOT": 4.495e-05, "MEAN_MOTION_DDOT": 0}, "tle": {"line1": "1 34059U 93036JW  25343.31606100  .00004495  00000+0  10949-2 0  9992", "line2": "2 34059  74.0378 192.7349 0018706 270.3264 269.2043 14.52916514884096"}}, "geometry": {"type": "Point", "coordinates": [-144.03185860400802, 54.83273049388661]}}, {"type": "Feature", "properties": {"norad_id": 34061, "name": "COSMOS 2251 DEB", "group": "cosmos-2251-debris", "lat": -2.3970173701494915, "lon": 89.6835401788512, "alt_km": 774.285773431905, "timestamp": "2025-12-09T16:56:36.967899+00:00", "meta": {"OBJECT_NAME": "COSMOS 2251 DEB", "OBJECT_ID": "1993-036JY", "EPOCH": "2025-12-09T04:57:02.304288", "MEAN_MOTION": 14.40344522, "ECCENTRICITY": 0.00204232, "INCLINATION": 74.0402, "RA_OF_ASC_NODE": 269.9204, "ARG_OF_PERICENTER": 347.3988, "MEAN_ANOMALY": 124.9889, "EPHEMERIS_TYPE": 0, "CLASSIFICATION_TYPE": "U", "NORAD_CAT_ID": 34061, "ELEMENT_SET_NO": 999, "REV_AT_EPOCH": 88129, "BSTAR": 0.00050866953, "MEAN_MOTION_DOT": 1.591e-05, "MEAN_MOTION_DDOT": 0}, "tle": {"line1": "1 34061U 93036JY  25343.20627667  .00001591  00000+0  50867-3 0  9992", "line2": "2 34061  74.0402 269.9204 0020423 347.3988 124.9889 14.40344522881296"}}, "geometry": {"type": "Point", "coordinates": [89.6835401788512, -2.3970173701494915]}}, {"type": "Feature", "properties": {"norad_id": 34062, "name": "COSMOS 2251 DEB", "group": "cosmos-2251-debris", "lat": -61.5792674127557, "lon": -4.043537261395268, "alt_km": 592.1883747976717, "timestamp": "2025-12-09T16:56:36.967910+00:00", "meta": {"OBJECT_NAME": "COSMOS 2251 DEB", "OBJECT_ID": "1993-036JZ", "EPOCH": "2025-12-09T11:16:58.063872", "MEAN_MOTION": 14.78446444, "ECCENTRICITY": 0.007527, "INCLINATION": 74.0278, "RA_OF_ASC_NODE": 144.4651, "ARG_OF_PERICENTER": 224.1366, "MEAN_ANOMALY": 206.8041, "EPHEMERIS_TYPE": 0, "CLASSIFICATION_TYPE": "U", "NORAD_CAT_ID": 34062, "ELEMENT_SET_NO": 999, "REV_AT_EPOCH": 88547, "BSTAR": 0.0040881, "MEAN_MOTION_DOT": 0.00031369, "MEAN_MOTION_DDOT": 0}, "tle": {"line1": "1 34062U 93036JZ  25343.47011648  .00031369  00000+0  40881-2 0  9998", "line2": "2 34062  74.0278 144.4651 0075270 224.1366 206.8041 14.78446444885474"}}, "geometry": {"type": "Point", "coordinates": [-4.043537261395268, -61.5792674127557]}}, {"type": "Feature", "properties": {"norad_id": 34064, "name": "COSMOS 2251 DEB", "group": "cosmos-2251-debris", "lat": 43.14057545130605, "lon": 80.93325924994437, "alt_km": 760.6637223128419, "timestamp": "2025-12-09T16:56:36.967920+00:00", "meta": {"OBJECT_NAME": "COSMOS 2251 DEB", "OBJECT_ID": "1993-036KB", "EPOCH": "2025-12-09T05:14:55.819968", "MEAN_MOTION": 14.42318533, "ECCENTRICITY": 0.0022004, "INCLINATION": 74.0333, "RA_OF_ASC_NODE": 277.3998, "ARG_OF_PERICENTER": 344.2313, "MEAN_ANOMALY": 141.119, "EPHEMERIS_TYPE": 0, "CLASSIFICATION_TYPE": "U", "NORAD_CAT_ID": 34064, "ELEMENT_SET_NO": 999, "REV_AT_EPOCH": 88091, "BSTAR": 0.00094963, "MEAN_MOTION_DOT": 3.119e-05, "MEAN_MOTION_DDOT": 0}, "tle": {"line1": "1 34064U 93036KB  25343.21870162  .00003119  00000+0  94963-3 0  9999", "line2": "2 34064  74.0333 277.3998 0022004 344.2313 141.1190 14.42318533880919"}}, "geometry": {"type": "Point", "coordinates": [80.93325924994437, 43.14057545130605]}}, {"type": "Feature", "properties": {"norad_id": 34065, "name": "COSMOS 2251 DEB", "group": "cosmos-2251-debris", "lat": -13.804549191135248, "lon": 87.74213713048918, "alt_km": 780.4653413357091, "timestamp": "2025-12-09T16:56:36.967930+00:00", "meta": {"OBJECT_NAME": "COSMOS 2251 DEB", "OBJECT_ID": "1993-036KC", "EPOCH": "2025-12-09T05:03:17.436672", "MEAN_MOTION": 14.38056094, "ECCENTRICITY": 0.00162224, "INCLINATION": 74.0359, "RA_OF_ASC_NODE": 264.621, "ARG_OF_PERICENTER": 2.84, "MEAN_ANOMALY": 147.9836, "EPHEMERIS_TYPE": 0, "CLASSIFICATION_TYPE": "U", "NORAD_CAT_ID": 34065, "ELEMENT_SET_NO": 999, "REV_AT_EPOCH": 88154, "BSTAR": 0.00027123633, "MEAN_MOTION_DOT": 7.96e-06, "MEAN_MOTION_DDOT": 0}, "tle": {"line1": "1 34065U 93036KC  25343.21061848  .00000796  00000+0  27124-3 0  9996", "line2": "2 34065  74.0359 264.6210 0016222   2.8400 147.9836 14.38056094881540"}}, "geometry": {"type": "Point", "coordinates": [87.74213713048918, -13.804549191135248]}}, {"type": "Feature", "properties": {"norad_id": 34070, "name": "COSMOS 2251 DEB", "group": "cosmos-2251-debris", "lat": 13.43350641004576, "lon": 126.15496052288394, "alt_km": 649.6849498147449, "timestamp": "2025-12-09T16:56:36.967941+00:00", "meta": {"OBJECT_NAME": "COSMOS 2251 DEB", "OBJECT_ID": "1993-036KH", "EPOCH": "2025-12-09T10:37:55.746912", "MEAN_MOTION": 14.76829332, "ECCENTRICITY": 0.0018935, "INCLINATION": 74.0009, "RA_OF_ASC_NODE": 122.7416, "ARG_OF_PERICENTER": 238.1647, "MEAN_ANOMALY": 178.2185, "EPHEMERIS_TYPE": 0, "CLASSIFICATION_TYPE": "U", "NORAD_CAT_ID": 34070, "ELEMENT_SET_NO": 999, "REV_AT_EPOCH": 88562, "BSTAR": 0.0038205, "MEAN_MOTION_DOT": 0.00026978, "MEAN_MOTION_DDOT": 0}, "tle": {"line1": "1 34070U 93036KH  25343.44300633  .00026978  00000+0  38205-2 0  9996", "line2": "2 34070  74.0009 122.7416 0018935 238.1647 178.2185 14.76829332885622"}}, "geometry": {"type": "Point", "coordinates": [126.15496052288394, 13.43350641004576]}}, {"type": "Feature", "properties": {"norad_id": 34114, "name": "COSMOS 2251 DEB", "group": "cosmos-2251-debris", "lat": 73.81821406242857, "lon": 129.64208083059384, "alt_km": 672.7042131184671, "timestamp": "2025-12-09T16:56:36.967951+00:00", "meta": {"OBJECT_NAME": "COSMOS 2251 DEB", "OBJECT_ID": "1993-036KK", "EPOCH": "2025-12-09T06:56:55.385088", "MEAN_MOTION": 14.56302129, "ECCENTRICITY": 0.0047311, "INCLINATION": 74.0585, "RA_OF_ASC_NODE": 50.3676, "ARG_OF_PERICENTER": 46.1988, "MEAN_ANOMALY": 18.2427, "EPHEMERIS_TYPE": 0, "CLASSIFICATION_TYPE": "U", "NORAD_CAT_ID": 34114, "ELEMENT_SET_NO": 999, "REV_AT_EPOCH": 87751, "BSTAR": 0.0021816, "MEAN_MOTION_DOT": 9.795e-05, "MEAN_MOTION_DDOT": 0}, "tle": {"line1": "1 34114U 93036KK  25343.28952992  .00009795  00000+0  21816-2 0  9996", "line2": "2 34114  74.0585  50.3676 0047311  46.1988  18.2427 14.56302129877518"}}, "geometry": {"type": "Point", "coordinates": [129.64208083059384, 73.81821406242857]}}, {"type": "Feature", "properties": {"norad_id": 34115, "name": "COSMOS 2251 DEB", "group": "cosmos-2251-debris", "lat": -49.860539798545254, "lon": -131.96126719118524, "alt_km": 649.1390771408978, "timestamp": "2025-12-09T16:56:36.967961+00:00", "meta": {"OBJECT_NAME": "COSMOS 2251 DEB", "OBJECT_ID": "1993-036KL", "EPOCH": "2025-12-09T04:11:52.352736", "MEAN_MOTION": 14.79398973, "ECCENTRICITY": 0.00284205, "INCLINATION": 74.0066, "RA_OF_ASC_NODE": 248.9698, "ARG_OF_PERICENTER": 73.6091, "MEAN_ANOMALY": 286.8206, "EPHEMERIS_TYPE": 0, "CLASSIFICATION_TYPE": "U", "NORAD_CAT_ID": 34115, "ELEMENT_SET_NO": 999, "REV_AT_EPOCH": 89359, "BSTAR": 0.0012405206, "MEAN_MOTION_DOT": 9.294e-05, "MEAN_MOTION_DDOT": 0}, "tle": {"line1": "1 34115U 93036KL  25343.17491149  .00009294  00000+0  12405-2 0  9995", "line2": "2 34115  74.0066 248.9698 0028420  73.6091 286.8206 14.79398973893593"}}, "geometry": {"type": "Point", "coordinates": [-131.96126719118524, -49.860539798545254]}}, {"type": "Feature", "properties": {"norad_id": 34116, "name": "COSMOS 2251 DEB", "group": "cosmos-2251-debris", "lat": -19.23735854755127, "lon": 14.230400918109437, "alt_km": 717.0829928318899, "timestamp": "2025-12-09T16:56:36.967972+00:00", "meta": {"OBJECT_NAME": "COSMOS 2251 DEB", "OBJECT_ID": "1993-036KM", "EPOCH": "2025-12-09T06:39:43.153056", "MEAN_MOTION": 14.52945314, "ECCENTRICITY": 0.0012125, "INCLINATION": 74.0399, "RA_OF_ASC_NODE": 189.3066, "ARG_OF_PERICENTER": 265.3504, "MEAN_ANOMALY": 214.8232, "EPHEMERIS_TYPE": 0, "CLASSIFICATION_TYPE": "U", "NORAD_CAT_ID": 34116, "ELEMENT_SET_NO": 999, "REV_AT_EPOCH": 88436, "BSTAR": 0.0010113, "MEAN_MOTION_DOT": 4.147e-05, "MEAN_MOTION_DDOT": 0}, "tle": {"line1": "1 34116U 93036KM  25343.27758279  .00004147  00000+0  10113-2 0  9993", "line2": "2 34116  74.0399 189.3066 0012125 265.3504 214.8232 14.52945314884367"}}, "geometry": {"type": "Point", "coordinates": [14.230400918109437, -19.23735854755127]}}]}